{
  "links" : {
    "next" : "https://api.nasa.gov/neo/rest/v1/feed?start_date=1998-03-16&end_date=1998-03-16&detailed=true&api_key=t0TVs3DtDT2H8Oy2Zy8m2eVrNsAVKAexjcZXUckd",
    "prev" : "https://api.nasa.gov/neo/rest/v1/feed?start_date=1998-03-14&end_date=1998-03-14&detailed=true&api_key=t0TVs3DtDT2H8Oy2Zy8m2eVrNsAVKAexjcZXUckd",
    "self" : "https://api.nasa.gov/neo/rest/v1/feed?start_date=1998-03-15&end_date=1998-03-15&detailed=true&api_key=t0TVs3DtDT2H8Oy2Zy8m2eVrNsAVKAexjcZXUckd"
  },
  "element_count" : 9,
  "near_earth_objects" : {
    "1998-03-15" : [ {
      "links" : {
        "self" : "https://api.nasa.gov/neo/rest/v1/neo/3699514?api_key=t0TVs3DtDT2H8Oy2Zy8m2eVrNsAVKAexjcZXUckd"
      },
      "neo_reference_id" : "3699514",
      "name" : "(2014 WF365)",
      "nasa_jpl_url" : "http://ssd.jpl.nasa.gov/sbdb.cgi?sstr=3699514",
      "absolute_magnitude_h" : 17.2,
      "estimated_diameter" : {
        "kilometers" : {
          "estimated_diameter_min" : 0.9650614696,
          "estimated_diameter_max" : 2.1579430484
        },
        "meters" : {
          "estimated_diameter_min" : 965.0614695789,
          "estimated_diameter_max" : 2157.9430484443
        },
        "miles" : {
          "estimated_diameter_min" : 0.5996612104,
          "estimated_diameter_max" : 1.34088323
        },
        "feet" : {
          "estimated_diameter_min" : 3166.2122718533,
          "estimated_diameter_max" : 7079.8658710581
        }
      },
      "is_potentially_hazardous_asteroid" : false,
      "close_approach_data" : [ {
        "close_approach_date" : "1998-03-15",
        "epoch_date_close_approach" : 889948800000,
        "relative_velocity" : {
          "kilometers_per_second" : "26.6899110781",
          "kilometers_per_hour" : "96083.6798810372",
          "miles_per_hour" : "59702.6620905256"
        },
        "miss_distance" : {
          "astronomical" : "0.4541698446",
          "lunar" : "176.6720733643",
          "kilometers" : "67942840",
          "miles" : "42217724"
        },
        "orbiting_body" : "Earth"
      } ],
      "orbital_data" : {
        "orbit_id" : "41",
        "orbit_determination_date" : "2017-09-26 06:50:10",
        "orbit_uncertainty" : "1",
        "minimum_orbit_intersection" : ".288539",
        "jupiter_tisserand_invariant" : "3.112",
        "epoch_osculation" : "2458000.5",
        "eccentricity" : ".7634295603473189",
        "semi_major_axis" : "2.260228211595653",
        "inclination" : "17.89236175263101",
        "ascending_node_longitude" : "165.7701362410085",
        "orbital_period" : "1241.157408479784",
        "perihelion_distance" : ".5347031817325767",
        "perihelion_argument" : "15.14056388335034",
        "aphelion_distance" : "3.985753241458729",
        "perihelion_time" : "2458364.437426958264",
        "mean_anomaly" : "254.4392767510044",
        "mean_motion" : ".2900518480093041",
        "equinox" : "J2000"
      }
    }, {
      "links" : {
        "self" : "https://api.nasa.gov/neo/rest/v1/neo/2477248?api_key=t0TVs3DtDT2H8Oy2Zy8m2eVrNsAVKAexjcZXUckd"
      },
      "neo_reference_id" : "2477248",
      "name" : "477248 (2009 SV)",
      "nasa_jpl_url" : "http://ssd.jpl.nasa.gov/sbdb.cgi?sstr=2477248",
      "absolute_magnitude_h" : 19.8,
      "estimated_diameter" : {
        "kilometers" : {
          "estimated_diameter_min" : 0.2914439045,
          "estimated_diameter_max" : 0.6516883822
        },
        "meters" : {
          "estimated_diameter_min" : 291.4439045349,
          "estimated_diameter_max" : 651.6883821679
        },
        "miles" : {
          "estimated_diameter_min" : 0.1810947904,
          "estimated_diameter_max" : 0.4049402617
        },
        "feet" : {
          "estimated_diameter_min" : 956.1808197541,
          "estimated_diameter_max" : 2138.0853117517
        }
      },
      "is_potentially_hazardous_asteroid" : false,
      "close_approach_data" : [ {
        "close_approach_date" : "1998-03-15",
        "epoch_date_close_approach" : 889948800000,
        "relative_velocity" : {
          "kilometers_per_second" : "16.9161389933",
          "kilometers_per_hour" : "60898.1003758818",
          "miles_per_hour" : "37839.7113141139"
        },
        "miss_distance" : {
          "astronomical" : "0.3273585028",
          "lunar" : "127.3424606323",
          "kilometers" : "48972136",
          "miles" : "30429876"
        },
        "orbiting_body" : "Earth"
      } ],
      "orbital_data" : {
        "orbit_id" : "25",
        "orbit_determination_date" : "2017-04-06 09:19:01",
        "orbit_uncertainty" : "1",
        "minimum_orbit_intersection" : ".0693314",
        "jupiter_tisserand_invariant" : "4.454",
        "epoch_osculation" : "2458000.5",
        "eccentricity" : ".278391010550521",
        "semi_major_axis" : "1.475725210188854",
        "inclination" : "24.93678627031341",
        "ascending_node_longitude" : "185.4147754112901",
        "orbital_period" : "654.7969858804818",
        "perihelion_distance" : "1.064896577629499",
        "perihelion_argument" : "4.647357699479851",
        "aphelion_distance" : "1.886553842748209",
        "perihelion_time" : "2458088.318498182039",
        "mean_anomaly" : "311.7183798532261",
        "mean_motion" : ".5497887249983613",
        "equinox" : "J2000"
      }
    }, {
      "links" : {
        "self" : "https://api.nasa.gov/neo/rest/v1/neo/2488490?api_key=t0TVs3DtDT2H8Oy2Zy8m2eVrNsAVKAexjcZXUckd"
      },
      "neo_reference_id" : "2488490",
      "name" : "488490 (2000 AF205)",
      "nasa_jpl_url" : "http://ssd.jpl.nasa.gov/sbdb.cgi?sstr=2488490",
      "absolute_magnitude_h" : 21.7,
      "estimated_diameter" : {
        "kilometers" : {
          "estimated_diameter_min" : 0.1214940408,
          "estimated_diameter_max" : 0.2716689341
        },
        "meters" : {
          "estimated_diameter_min" : 121.4940407996,
          "estimated_diameter_max" : 271.6689340891
        },
        "miles" : {
          "estimated_diameter_min" : 0.0754928736,
          "estimated_diameter_max" : 0.1688071972
        },
        "feet" : {
          "estimated_diameter_min" : 398.6025088171,
          "estimated_diameter_max" : 891.3023057169
        }
      },
      "is_potentially_hazardous_asteroid" : true,
      "close_approach_data" : [ {
        "close_approach_date" : "1998-03-15",
        "epoch_date_close_approach" : 889948800000,
        "relative_velocity" : {
          "kilometers_per_second" : "7.9143760224",
          "kilometers_per_hour" : "28491.753680544",
          "miles_per_hour" : "17703.6677244469"
        },
        "miss_distance" : {
          "astronomical" : "0.3272300969",
          "lunar" : "127.2925109863",
          "kilometers" : "48952924",
          "miles" : "30417938"
        },
        "orbiting_body" : "Earth"
      } ],
      "orbital_data" : {
        "orbit_id" : "34",
        "orbit_determination_date" : "2017-05-17 06:20:06",
        "orbit_uncertainty" : "1",
        "minimum_orbit_intersection" : ".0181806",
        "jupiter_tisserand_invariant" : "5.888",
        "epoch_osculation" : "2458000.5",
        "eccentricity" : ".276832342773757",
        "semi_major_axis" : "1.034084544486993",
        "inclination" : "2.408373826125851",
        "ascending_node_longitude" : "220.066541216687",
        "orbital_period" : "384.0895555202742",
        "perihelion_distance" : ".747816497410525",
        "perihelion_argument" : "127.3508145029687",
        "aphelion_distance" : "1.32035259156346",
        "perihelion_time" : "2457982.778879424392",
        "mean_anomaly" : "16.60967687230428",
        "mean_motion" : ".9372814095721939",
        "equinox" : "J2000"
      }
    } ]
  }
}